NORAD_CAT_ID,OBJECT_NAME,OBJECT_TYPE,EPOCH,MEAN_MOTION,ECCENTRICITY,INCLINATION,RA_OF_ASC_NODE,ARG_OF_PERICENTER,MEAN_ANOMALY,BSTAR,MEAN_MOTION_DOT,MEAN_MOTION_DDOT,TLE_LINE0,TLE_LINE1,TLE_LINE2,SEMIMAJOR_AXIS,PERIOD,APOGEE,PERIGEE,DECAYED
53716.0,STARLINK-4699,PAYLOAD,2023-07-08 01:49:37,15.08844848,9.67e-05,53.2171,313.4959,86.7961,273.3142,9.9732e-05,1.3e-05,0.0,0 STARLINK-4699,1 53716U 22107S   23189.07612828  .00001300  00000-0  99732-4 0  9999,2 53716  53.2171 313.4959 0000967  86.7961 273.3142 15.08844848 46671,6917.866,95.437,540.4,539.062,0.0
53716.0,STARLINK-4699,PAYLOAD,2023-07-09 01:40:24,15.08840399,9.62e-05,53.217,309.0355,96.7551,263.355,5.2067e-06,-2.05e-06,0.0,0 STARLINK-4699,1 53716U 22107S   23190.06973121 -.00000205  00000-0  52067-5 0  9991,2 53716  53.2170 309.0355 0000962  96.7551 263.3550 15.08840399 46828,6917.879,95.438,540.41,539.079,0.0
53716.0,STARLINK-4699,PAYLOAD,2023-07-09 12:48:07,15.0883305,0.0001003,53.2173,306.9539,99.1793,260.9313,-1.0192e-05,-4.5e-06,0.0,0 STARLINK-4699,1 53716U 22107S   23190.53341708 -.00000450  00000-0 -10192-4 0  9998,2 53716  53.2173 306.9539 0001003  99.1793 260.9313 15.08833050 46896,6917.902,95.438,540.46,539.073,0.0
53716.0,STARLINK-4699,PAYLOAD,2023-07-09 17:34:16,15.08838521,0.0001026,53.2175,306.0614,101.8462,258.2645,-2.3434e-05,-6.61e-06,0.0,0 STARLINK-4699,1 53716U 22107S   23190.73213424 -.00000661  00000-0 -23434-4 0  9990,2 53716  53.2175 306.0614 0001026 101.8462 258.2645 15.08838521 46922,6917.885,95.438,540.46,539.04,0.0
53716.0,STARLINK-4699,PAYLOAD,2023-07-10 15:49:39,15.08844527,0.0001044,53.2181,301.8993,96.2847,263.8264,6.8408e-05,8.01e-06,0.0,0 STARLINK-4699,1 53716U 22107S   23191.65948870  .00000801  00000-0  68408-4 0  9996,2 53716  53.2181 301.8993 0001044  96.2847 263.8264 15.08844527 47064,6917.867,95.437,540.454,539.009,0.0
53716.0,STARLINK-4699,PAYLOAD,2023-07-11 07:43:31,15.08832017,0.0001128,53.2182,298.9251,90.6103,269.5019,8.6358e-05,1.087e-05,0.0,0 STARLINK-4699,1 53716U 22107S   23192.32189725  .00001087  00000-0  86358-4 0  9998,2 53716  53.2182 298.9251 0001128  90.6103 269.5019 15.08832017 47167,6917.905,95.438,540.55,538.989,0.0
53716.0,STARLINK-4699,PAYLOAD,2023-07-11 18:51:13,15.08843536,0.0001176,53.2179,296.8427,89.2795,270.8332,0.00012336,1.676e-05,0.0,0 STARLINK-4699,1 53716U 22107S   23192.78557001  .00001676  00000-0  12336-3 0  9992,2 53716  53.2179 296.8427 0001176  89.2795 270.8332 15.08843536 47238,6917.87,95.437,540.548,538.921,0.0
53716.0,STARLINK-4699,PAYLOAD,2023-07-12 13:55:51,15.08840758,0.0001207,53.2179,293.2747,81.0699,279.0429,6.1322e-06,-1.9e-06,0.0,0 STARLINK-4699,1 53716U 22107S   23193.58045609 -.00000190  00000-0  61322-5 0  9999,2 53716  53.2179 293.2747 0001207  81.0699 279.0429 15.08840758 47356,6917.878,95.438,540.578,538.908,0.0
53716.0,STARLINK-4699,PAYLOAD,2023-07-13 15:22:01,15.08838263,0.0001113,53.218,288.5185,100.2954,259.8164,3.3467e-05,2.45e-06,0.0,0 STARLINK-4699,1 53716U 22107S   23194.64029954  .00000245  00000-0  33467-4 0  9990,2 53716  53.2180 288.5185 0001113 100.2954 259.8164 15.08838263 47513,6917.886,95.438,540.521,538.981,0.0
53716.0,STARLINK-4699,PAYLOAD,2023-07-14 10:26:39,15.08815678,0.0001419,53.2183,284.9503,86.3447,273.7707,0.0003113,4.667e-05,0.0,0 STARLINK-4699,1 53716U 22107S   23195.43518335  .00004667  00000-0  31130-3 0  9990,2 53716  53.2183 284.9503 0001419  86.3447 273.7707 15.08815678 47636,6917.955,95.439,540.801,538.838,0.0
53716.0,STARLINK-4699,PAYLOAD,2023-07-14 15:12:48,15.08838333,0.0001391,53.2175,284.0559,87.34,272.7751,0.00014897,2.084e-05,0.0,0 STARLINK-4699,1 53716U 22107S   23195.63389800  .00002084  00000-0  14897-3 0  9997,2 53716  53.2175 284.0559 0001391  87.3400 272.7751 15.08838333 47662,6917.885,95.438,540.713,538.788,0.0
53716.0,STARLINK-4699,PAYLOAD,2023-07-15 05:31:17,15.08824082,0.000119,53.2174,281.3798,93.4719,266.6409,0.00031236,4.685e-05,0.0,0 STARLINK-4699,1 53716U 22107S   23196.23006337  .00004685  00000-0  31236-3 0  9990,2 53716  53.2174 281.3798 0001190  93.4719 266.6409 15.08824082 47752,6917.929,95.439,540.617,538.971,0.0
53716.0,STARLINK-4699,PAYLOAD,2023-07-15 11:52:49,15.0884597,0.0001202,53.2173,280.1924,77.692,282.4207,0.00013796,1.909e-05,0.0,0 STARLINK-4699,1 53716U 22107S   23196.49501456  .00001909  00000-0  13796-3 0  9997,2 53716  53.2173 280.1924 0001202  77.6920 282.4207 15.08845970 47796,6917.862,95.437,540.559,538.896,0.0
53716.0,STARLINK-4699,PAYLOAD,2023-07-16 05:22:04,15.08838526,0.00012,53.2172,276.9193,103.929,256.1836,-2.9089e-05,-7.51e-06,0.0,0 STARLINK-4699,1 53716U 22107S   23197.22366376 -.00000751  00000-0 -29089-4 0  9998,2 53716  53.2172 276.9193 0001200 103.9290 256.1836 15.08838526 47905,6917.885,95.438,540.58,538.92,0.0
53716.0,STARLINK-4699,PAYLOAD,2023-07-17 11:34:23,15.08842898,0.0001027,53.2167,271.271,89.9275,270.1835,5.8199e-05,6.39e-06,0.0,0 STARLINK-4699,1 53716U 22107S   23198.48221897  .00000639  00000-0  58199-4 0  9992,2 53716  53.2167 271.2710 0001027  89.9275 270.1835 15.08842898 48098,6917.872,95.437,540.447,539.026,0.0
53716.0,STARLINK-4699,PAYLOAD,2023-07-18 13:00:33,15.088412,0.0001109,53.2164,266.5121,92.7148,267.3971,0.00013099,1.798e-05,0.0,0 STARLINK-4699,1 53716U 22107S   23199.54205868  .00001798  00000-0  13099-3 0  9996,2 53716  53.2164 266.5121 0001109  92.7148 267.3971 15.08841200 48253,6917.877,95.437,540.509,538.975,0.0
53716.0,STARLINK-4699,PAYLOAD,2023-07-19 09:40:35,15.0883607,0.0001418,53.2176,262.6431,103.6604,256.4546,-6.5848e-05,-1.336e-05,0.0,0 STARLINK-4699,1 53716U 22107S   23200.40319056 -.00001336  00000-0 -65848-4 0  9999,2 53716  53.2176 262.6431 0001418 103.6604 256.4546 15.08836070 48389,6917.892,95.438,540.738,538.776,0.0
53716.0,STARLINK-4699,PAYLOAD,2023-07-20 12:42:08,15.0883968,0.0001287,53.2172,257.5882,97.4991,262.6148,3.4393e-05,2.6e-06,0.0,0 STARLINK-4699,1 53716U 22107S   23201.52926722  .00000260  00000-0  34393-4 0  9991,2 53716  53.2172 257.5882 0001287  97.4991 262.6148 15.08839680 48557,6917.881,95.438,540.637,538.856,0.0
53716.0,STARLINK-4699,PAYLOAD,2023-07-24 10:29:53,15.08841583,0.0001364,53.2163,240.0434,100.2238,259.8908,5.6269e-05,6.08e-06,0.0,0 STARLINK-4699,1 53716U 22107S   23205.43742678  .00000608  00000-0  56269-4 0  9993,2 53716  53.2163 240.0434 0001364 100.2238 259.8908 15.08841583 49592,6917.876,95.437,540.684,538.797,0.0
53716.0,STARLINK-4699,PAYLOAD,2023-07-25 11:56:04,15.08838058,0.0001115,53.2152,235.2888,96.9319,263.18,3.3627e-05,2.47e-06,0.0,0 STARLINK-4699,1 53716U 22107S   23206.49727023  .00000247  00000-0  33627-4 0  9999,2 53716  53.2152 235.2888 0001115  96.9319 263.1800 15.08838058 49754,6917.886,95.438,540.523,538.98,0.0
53716.0,STARLINK-4699,PAYLOAD,2023-07-26 10:11:27,15.08841529,0.0001174,53.2156,231.1249,93.7811,266.3316,2.9825e-05,1.87e-06,0.0,0 STARLINK-4699,1 53716U 22107S   23207.42462919  .00000187  00000-0  29825-4 0  9991,2 53716  53.2156 231.1249 0001174  93.7811 266.3316 15.08841529 49890,6917.876,95.437,540.553,538.929,0.0
53716.0,STARLINK-4699,PAYLOAD,2023-07-27 02:05:19,15.08837978,0.0001168,53.2156,228.151,93.6956,266.417,5.3632e-05,5.66e-06,0.0,0 STARLINK-4699,1 53716U 22107S   23208.08703049  .00000566  00000-0  53632-4 0  9990,2 53716  53.2156 228.1510 0001168  93.6956 266.4170 15.08837978 49543,6917.887,95.438,540.56,538.944,0.0
53716.0,STARLINK-4699,PAYLOAD,2023-07-27 08:26:51,15.08839768,0.0001055,53.2154,226.9622,85.8767,274.2346,5.7288e-05,6.24e-06,0.0,0 STARLINK-4699,1 53716U 22107S   23208.35198971  .00000624  00000-0  57288-4 0  9998,2 53716  53.2154 226.9622 0001055  85.8767 274.2346 15.08839768 50036,6917.881,95.438,540.476,539.016,0.0
53716.0,STARLINK-4699,PAYLOAD,2023-07-28 01:56:07,15.088323,0.0001056,53.2154,223.6915,87.3419,272.7694,-2.5785e-05,-6.98e-06,0.0,0 STARLINK-4699,1 53716U 22107S   23209.08063876 -.00000698  00000-0 -25785-4 0  9994,2 53716  53.2154 223.6915 0001056  87.3419 272.7694 15.08832300 49691,6917.904,95.438,540.499,539.038,0.0
53716.0,STARLINK-4699,PAYLOAD,2023-07-28 09:53:02,15.08834144,0.0001064,53.2157,222.2049,88.2681,271.8433,-1.0648e-05,-4.57e-06,0.0,0 STARLINK-4699,1 53716U 22107S   23209.41183814 -.00000457  00000-0 -10648-4 0  9991,2 53716  53.2157 222.2049 0001064  88.2681 271.8433 15.08834144 50193,6917.898,95.438,540.499,539.027,0.0
53716.0,STARLINK-4699,PAYLOAD,2023-07-29 09:43:49,15.08839445,0.0001036,53.2157,217.744,85.7694,274.3416,3.9566e-05,3.42e-06,0.0,0 STARLINK-4699,1 53716U 22107S   23210.40543509  .00000342  00000-0  39566-4 0  9994,2 53716  53.2157 217.7440 0001036  85.7694 274.3416 15.08839445 49895,6917.882,95.438,540.464,539.03,0.0
53716.0,STARLINK-4699,PAYLOAD,2023-07-31 09:25:23,15.08839998,0.0001107,53.2156,208.8222,88.3435,271.7684,3.0312e-05,1.95e-06,0.0,0 STARLINK-4699,1 53716U 22107S   23212.39263752  .00000195  00000-0  30312-4 0  9999,2 53716  53.2156 208.8222 0001107  88.3435 271.7684 15.08839998 50190,6917.88,95.438,540.511,538.98,0.0
53716.0,STARLINK-4699,PAYLOAD,2023-08-02 09:06:58,15.08838244,0.0001184,53.2167,199.9011,91.4466,268.6662,2.2977e-05,7.8e-07,0.0,0 STARLINK-4699,1 53716U 22107S   23214.37983814  .00000078  00000-0  22977-4 0  9995,2 53716  53.2167 199.9011 0001184  91.4466 268.6662 15.08838244 50499,6917.886,95.438,540.57,538.932,0.0
53716.0,STARLINK-4699,PAYLOAD,2023-08-03 15:19:17,15.08838813,0.0001188,53.2168,194.2518,89.602,270.5108,-1.9181e-05,-5.93e-06,0.0,0 STARLINK-4699,1 53716U 22107S   23215.63840026 -.00000593  00000-0 -19181-4 0  9999,2 53716  53.2168 194.2518 0001188  89.6020 270.5108 15.08838813 50689,6917.884,95.438,540.571,538.927,0.0
53716.0,STARLINK-4699,PAYLOAD,2023-08-04 02:27:00,15.08828276,0.0001256,53.2172,192.1708,92.4128,267.7008,-3.7043e-05,-8.77e-06,0.0,0 STARLINK-4699,1 53716U 22107S   23216.10209007 -.00000877  00000-0 -37043-4 0  9992,2 53716  53.2172 192.1708 0001256  92.4128 267.7008 15.08828276 50756,6917.916,95.438,540.65,538.912,0.0
